CTC1_L_00233001-01
1 10000U 23479HF  26075.70032407  .00000000  00000+0  00000-0 0  9998
2 10000  65.0000   0.0000 0000000   0.0000   0.0000 12.65579349    16
CTC1_L_00233001-02
1 10001U 22800SJ  26075.70032407  .00000000  00000+0  00000-0 0  9996
2 10001  65.0000   0.0000 0000000   0.0000  90.0000 12.65579349    16
CTC1_L_00233001-03
1 10002U 23722YX  26075.70032407  .00000000  00000+0  00000-0 0  9991
2 10002  65.0000   0.0000 0000000   0.0000 180.0000 12.65579349    17
CTC1_L_00233001-04
1 10003U 23846BA  26075.70032407  .00000000  00000+0  00000-0 0  9999
2 10003  65.0000   0.0000 0000000   0.0000 270.0000 12.65579349    18
CTC1_L_00233002-01
1 10004U 23028WG  26075.70032407  .00000000  00000+0  00000-0 0  9992
2 10004  65.0000  12.0000 0000000   0.0000  12.0000 12.65579349    16
CTC1_L_00233002-02
1 10005U 26096KV  26075.70032407  .00000000  00000+0  00000-0 0  9991
2 10005  65.0000  12.0000 0000000   0.0000 102.0000 12.65579349    17
CTC1_L_00233002-03
1 10006U 23737OU  26075.70032407  .00000000  00000+0  00000-0 0  9991
2 10006  65.0000  12.0000 0000000   0.0000 192.0000 12.65579349    17
CTC1_L_00233002-04
1 10007U 26012RN  26075.70032407  .00000000  00000+0  00000-0 0  9991
2 10007  65.0000  12.0000 0000000   0.0000 282.0000 12.65579349    18
CTC1_L_00233003-01
1 10008U 23876RZ  26075.70032407  .00000000  00000+0  00000-0 0  9997
2 10008  65.0000  24.0000 0000000   0.0000  24.0000 12.65579349    16
CTC1_L_00233003-02
1 10009U 26933RW  26075.70032407  .00000000  00000+0  00000-0 0  9995
2 10009  65.0000  24.0000 0000000   0.0000 114.0000 12.65579349    17
CTC1_L_00233003-03
1 10010U 25275LD  26075.70032407  .00000000  00000+0  00000-0 0  9995
2 10010  65.0000  24.0000 0000000   0.0000 204.0000 12.65579349    19
CTC1_L_00233003-04
1 10011U 23984FY  26075.70032407  .00000000  00000+0  00000-0 0  9991
2 10011  65.0000  24.0000 0000000   0.0000 294.0000 12.65579349    19
CTC1_L_00233004-01
1 10012U 26943IU  26075.70032407  .00000000  00000+0  00000-0 0  9990
2 10012  65.0000  36.0000 0000000   0.0000  36.0000 12.65579349    17
CTC1_L_00233004-02
1 10013U 22794M   26075.70032407  .00000000  00000+0  00000-0 0  9991
2 10013  65.0000  36.0000 0000000   0.0000 126.0000 12.65579349    18
CTC1_L_00233004-03
1 10014U 23154OF  26075.70032407  .00000000  00000+0  00000-0 0  9993
2 10014  65.0000  36.0000 0000000   0.0000 216.0000 12.65579349    19
CTC1_L_00233004-04
1 10015U 23241CC  26075.70032407  .00000000  00000+0  00000-0 0  9991
2 10015  65.0000  36.0000 0000000   0.0000 306.0000 12.65579349    10
CTC1_L_00233005-01
1 10016U 24099ZN  26075.70032407  .00000000  00000+0  00000-0 0  9994
2 10016  65.0000  48.0000 0000000   0.0000  48.0000 12.65579349    17
CTC1_L_00233005-02
1 10017U 26146NN  26075.70032407  .00000000  00000+0  00000-0 0  9990
2 10017  65.0000  48.0000 0000000   0.0000 138.0000 12.65579349    18
CTC1_L_00233005-03
1 10018U 22637SO  26075.70032407  .00000000  00000+0  00000-0 0  9992
2 10018  65.0000  48.0000 0000000   0.0000 228.0000 12.65579349    19
CTC1_L_00233005-04
1 10019U 22579NQ  26075.70032407  .00000000  00000+0  00000-0 0  9998
2 10019  65.0000  48.0000 0000000   0.0000 318.0000 12.65579349    10
CTC1_L_00233006-01
1 10020U 24169AP  26075.70032407  .00000000  00000+0  00000-0 0  9997
2 10020  65.0000  60.0000 0000000   0.0000  60.0000 12.65579349    10
CTC1_L_00233006-02
1 10021U 22351RE  26075.70032407  .00000000  00000+0  00000-0 0  9999
2 10021  65.0000  60.0000 0000000   0.0000 150.0000 12.65579349    11
CTC1_L_00233006-03
1 10022U 26568MV  26075.70032407  .00000000  00000+0  00000-0 0  9994
2 10022  65.0000  60.0000 0000000   0.0000 240.0000 12.65579349    12
CTC1_L_00233006-04
1 10023U 23871JD  26075.70032407  .00000000  00000+0  00000-0 0  9999
2 10023  65.0000  60.0000 0000000   0.0000 330.0000 12.65579349    13
CTC1_L_00233007-01
1 10024U 23061PC  26075.70032407  .00000000  00000+0  00000-0 0  9991
2 10024  65.0000  72.0000 0000000   0.0000  72.0000 12.65579349    10
CTC1_L_00233007-02
1 10025U 26586DM  26075.70032407  .00000000  00000+0  00000-0 0  9997
2 10025  65.0000  72.0000 0000000   0.0000 162.0000 12.65579349    11
CTC1_L_00233007-03
1 10026U 25528RQ  26075.70032407  .00000000  00000+0  00000-0 0  9993
2 10026  65.0000  72.0000 0000000   0.0000 252.0000 12.65579349    12
CTC1_L_00233007-04
1 10027U 24931EX  26075.70032407  .00000000  00000+0  00000-0 0  9991
2 10027  65.0000  72.0000 0000000   0.0000 342.0000 12.65579349    13
CTC1_L_00233008-01
1 10028U 26624WX  26075.70032407  .00000000  00000+0  00000-0 0  9993
2 10028  65.0000  84.0000 0000000   0.0000  84.0000 12.65579349    10
CTC1_L_00233008-02
1 10029U 25446BU  26075.70032407  .00000000  00000+0  00000-0 0  9995
2 10029  65.0000  84.0000 0000000   0.0000 174.0000 12.65579349    11
CTC1_L_00233008-03
1 10030U 23393HW  26075.70032407  .00000000  00000+0  00000-0 0  9996
2 10030  65.0000  84.0000 0000000   0.0000 264.0000 12.65579349    13
CTC1_L_00233008-04
1 10031U 25333VW  26075.70032407  .00000000  00000+0  00000-0 0  9993
2 10031  65.0000  84.0000 0000000   0.0000 354.0000 12.65579349    14
CTC1_L_00233009-01
1 10032U 24510HH  26075.70032407  .00000000  00000+0  00000-0 0  9990
2 10032  65.0000  96.0000 0000000   0.0000  96.0000 12.65579349    11
CTC1_L_00233009-02
1 10033U 22675DV  26075.70032407  .00000000  00000+0  00000-0 0  9991
2 10033  65.0000  96.0000 0000000   0.0000 186.0000 12.65579349    12
CTC1_L_00233009-03
1 10034U 26504IM  26075.70032407  .00000000  00000+0  00000-0 0  9997
2 10034  65.0000  96.0000 0000000   0.0000 276.0000 12.65579349    13
CTC1_L_00233009-04
1 10035U 22244WO  26075.70032407  .00000000  00000+0  00000-0 0  9995
2 10035  65.0000  96.0000 0000000   0.0000   6.0000 12.65579349    15
CTC1_L_00233010-01
1 10036U 25431US  26075.70032407  .00000000  00000+0  00000-0 0  9997
2 10036  65.0000 108.0000 0000000   0.0000 108.0000 12.65579349    13
CTC1_L_00233010-02
1 10037U 26316QL  26075.70032407  .00000000  00000+0  00000-0 0  9991
2 10037  65.0000 108.0000 0000000   0.0000 198.0000 12.65579349    13
CTC1_L_00233010-03
1 10038U 26925WM  26075.70032407  .00000000  00000+0  00000-0 0  9998
2 10038  65.0000 108.0000 0000000   0.0000 288.0000 12.65579349    14
CTC1_L_00233010-04
1 10039U 25473GG  26075.70032407  .00000000  00000+0  00000-0 0  9996
2 10039  65.0000 108.0000 0000000   0.0000  18.0000 12.65579349    16
CTC1_L_00233011-01
1 10040U 26441EA  26075.70032407  .00000000  00000+0  00000-0 0  9994
2 10040  65.0000 120.0000 0000000   0.0000 120.0000 12.65579349    16
CTC1_L_00233011-02
1 10041U 22191UD  26075.70032407  .00000000  00000+0  00000-0 0  9993
2 10041  65.0000 120.0000 0000000   0.0000 210.0000 12.65579349    17
CTC1_L_00233011-03
1 10042U 22432MO  26075.70032407  .00000000  00000+0  00000-0 0  9992
2 10042  65.0000 120.0000 0000000   0.0000 300.0000 12.65579349    18
CTC1_L_00233011-04
1 10043U 26404VH  26075.70032407  .00000000  00000+0  00000-0 0  9996
2 10043  65.0000 120.0000 0000000   0.0000  30.0000 12.65579349    19
CTC1_L_00233012-01
1 10044U 26897KF  26075.70032407  .00000000  00000+0  00000-0 0  9993
2 10044  65.0000 132.0000 0000000   0.0000 132.0000 12.65579349    16
CTC1_L_00233012-02
1 10045U 23723KG  26075.70032407  .00000000  00000+0  00000-0 0  9999
2 10045  65.0000 132.0000 0000000   0.0000 222.0000 12.65579349    17
CTC1_L_00233012-03
1 10046U 25773ER  26075.70032407  .00000000  00000+0  00000-0 0  9997
2 10046  65.0000 132.0000 0000000   0.0000 312.0000 12.65579349    18
CTC1_L_00233012-04
1 10047U 26293YS  26075.70032407  .00000000  00000+0  00000-0 0  9996
2 10047  65.0000 132.0000 0000000   0.0000  42.0000 12.65579349    19
CTC1_L_00233013-01
1 10048U 25605YB  26075.70032407  .00000000  00000+0  00000-0 0  9993
2 10048  65.0000 144.0000 0000000   0.0000 144.0000 12.65579349    16
CTC1_L_00233013-02
1 10049U 24869VL  26075.70032407  .00000000  00000+0  00000-0 0  9995
2 10049  65.0000 144.0000 0000000   0.0000 234.0000 12.65579349    17
CTC1_L_00233013-03
1 10050U 25980PO  26075.70032407  .00000000  00000+0  00000-0 0  9992
2 10050  65.0000 144.0000 0000000   0.0000 324.0000 12.65579349    19
CTC1_L_00233013-04
1 10051U 25631XV  26075.70032407  .00000000  00000+0  00000-0 0  9996
2 10051  65.0000 144.0000 0000000   0.0000  54.0000 12.65579349    10
CTC1_L_00233014-01
1 10052U 25025ES  26075.70032407  .00000000  00000+0  00000-0 0  9994
2 10052  65.0000 156.0000 0000000   0.0000 156.0000 12.65579349    17
CTC1_L_00233014-02
1 10053U 24909WV  26075.70032407  .00000000  00000+0  00000-0 0  9995
2 10053  65.0000 156.0000 0000000   0.0000 246.0000 12.65579349    18
CTC1_L_00233014-03
1 10054U 26759EK  26075.70032407  .00000000  00000+0  00000-0 0  9991
2 10054  65.0000 156.0000 0000000   0.0000 336.0000 12.65579349    19
CTC1_L_00233014-04
1 10055U 26185QT  26075.70032407  .00000000  00000+0  00000-0 0  9995
2 10055  65.0000 156.0000 0000000   0.0000  66.0000 12.65579349    10
CTC1_L_00233015-01
1 10056U 25766MH  26075.70032407  .00000000  00000+0  00000-0 0  9990
2 10056  65.0000 168.0000 0000000   0.0000 168.0000 12.65579349    17
CTC1_L_00233015-02
1 10057U 23387CU  26075.70032407  .00000000  00000+0  00000-0 0  9998
2 10057  65.0000 168.0000 0000000   0.0000 258.0000 12.65579349    18
CTC1_L_00233015-03
1 10058U 26227PX  26075.70032407  .00000000  00000+0  00000-0 0  9995
2 10058  65.0000 168.0000 0000000   0.0000 348.0000 12.65579349    19
CTC1_L_00233015-04
1 10059U 23812DP  26075.70032407  .00000000  00000+0  00000-0 0  9993
2 10059  65.0000 168.0000 0000000   0.0000  78.0000 12.65579349    10
CTC1_L_00233016-01
1 10060U 25026JP  26075.70032407  .00000000  00000+0  00000-0 0  9994
2 10060  65.0000 180.0000 0000000   0.0000 180.0000 12.65579349    10
CTC1_L_00233016-02
1 10061U 26040BZ  26075.70032407  .00000000  00000+0  00000-0 0  9992
2 10061  65.0000 180.0000 0000000   0.0000 270.0000 12.65579349    11
